0 FENGYUN 1C DEB
1 31820U 99025CHJ 13289.59559178  .00010978  00000-0  19684-2 0  4294
2 31820 098.9502 058.8199 0296268 187.7208 236.5817 14.42213946336072
0 FENGYUN 1C DEB
1 31820U 99025CHJ 13292.17428331  .00009469  00000-0  16955-2 0  4301
2 31820 098.9472 061.5271 0296593 180.0246 305.3480 14.42263235336447
0 FENGYUN 1C DEB
1 31820U 99025CHJ 13294.59009553  .00011477  00000-0  20513-2 0  4318
2 31820 098.9475 064.0664 0296392 172.9024 248.7522 14.42305551336798
